[{"OBJECT_NAME":"GAOFEN-9 05","OBJECT_ID":"2020-058A","EPOCH":"2026-03-10T00:01:50.876256","MEAN_MOTION":15.30293976,"ECCENTRICITY":0.0010522,"INCLINATION":97.2228,"RA_OF_ASC_NODE":111.963,"ARG_OF_PERICENTER":91.0204,"MEAN_ANOMALY":269.2242,"EPHEMERIS_TYPE":0,"CLASSIFICATION_TYPE":"U","NORAD_CAT_ID":46232,"ELEMENT_SET_NO":999,"REV_AT_EPOCH":30843,"BSTAR":0.00025120304,"MEAN_MOTION_DOT":7.299e-5,"MEAN_MOTION_DDOT":0},{"OBJECT_NAME":"STARLINK-32225","OBJECT_ID":"2024-216E","EPOCH":"2026-03-09T21:15:00.072864","MEAN_MOTION":15.27580712,"ECCENTRICITY":0.00016271,"INCLINATION":43.0003,"RA_OF_ASC_NODE":255.3849,"ARG_OF_PERICENTER":272.0542,"MEAN_ANOMALY":88.0123,"EPHEMERIS_TYPE":0,"CLASSIFICATION_TYPE":"U","NORAD_CAT_ID":62036,"ELEMENT_SET_NO":999,"REV_AT_EPOCH":7397,"BSTAR":0.0011592871,"MEAN_MOTION_DOT":0.00031777,"MEAN_MOTION_DDOT":0}]
